{"type":"FeatureCollection","features":[{"type":"Feature","properties":{"shapeGroup":"BES","shapeISO":"BES","shapeType":"ADM0"},"geometry":{"type":"MultiPolygon","coordinates":[[[[-68.204661,12.223212],[-68.194203,12.213935],[-68.190012,12.20482],[-68.201568,12.200832],[-68.210846,12.19009],[-68.203603,12.137763],[-68.205312,12.118232],[-68.213938,12.111802],[-68.232167,12.110745],[-68.23884,12.10456],[-68.238352,12.095771],[-68.228342,12.069973],[-68.225819,12.060248],[-68.227528,12.050727],[-68.231842,12.037991],[-68.237294,12.026801],[-68.242543,12.02204],[-68.254221,12.023627],[-68.259674,12.028062],[-68.280629,12.072211],[-68.28539,12.090074],[-68.287262,12.108303],[-68.282826,12.139594],[-68.282216,12.159898],[-68.287262,12.180325],[-68.302561,12.202948],[-68.321278,12.213853],[-68.369781,12.221259],[-68.391835,12.227769],[-68.410715,12.240302],[-68.417388,12.257025],[-68.40331,12.276516],[-68.410756,12.282701],[-68.406484,12.294623],[-68.400054,12.304389],[-68.390452,12.310207],[-68.376617,12.310045],[-68.36148,12.302191],[-68.340443,12.27497],[-68.331899,12.269029],[-68.314849,12.264838],[-68.252512,12.235541],[-68.22053,12.231147],[-68.211537,12.228095],[-68.204661,12.223212]]],[[[-62.977254,17.504137],[-62.965257,17.498916],[-62.945065,17.485384],[-62.948904,17.472375],[-62.958723,17.464571],[-62.981086,17.467724],[-62.9947,17.492133],[-62.997141,17.525621],[-62.983797,17.517683],[-62.977254,17.504137]]],[[[-63.223704,17.629218],[-63.229482,17.618232],[-63.238393,17.614691],[-63.251332,17.623765],[-63.248931,17.640367],[-63.238433,17.646918],[-63.230295,17.64232],[-63.223704,17.629218]]]]}}]}
